CZ-2C R/B               
1 54039U 22132E   26049.01093027  .00037384  00000+0  45712-3 0  9990
2 54039  97.2955  51.7595 0019694 155.7795 204.4393 15.60085850187302
GSLV R/B                
1 54149U 22138AN  26048.72987521  .00003152  00000+0  27325-3 0  9992
2 54149  87.3873 173.0404 0020066 219.4341 140.5431 14.96615874180949
XRISM                   
1 57800U 23137A   26049.15795209  .00004992  00000+0  28385-3 0  9997
2 57800  31.0028  49.9666 0008256 204.8830 155.1411 15.11248312134837
ACS3                    
1 59588U 24077B   26048.83420043  .00018092  00000+0  14852-1 0  9999
2 59588  97.2179 354.4099 0048221 134.7289 225.7815 13.88745291 91443
SZ-21 MODULE            
1 66515U 25246C   26049.13466482  .00031807  00000+0  29213-3 0  9995
2 66515  41.4764 323.5946 0001868 299.0458  61.0196 15.67019082 15001
