CCSDS_OMM_VERS = 2.0
CREATION_DATE  = 
ORIGINATOR     = 

OBJECT_NAME    = CZ-2C R/B
OBJECT_ID      = 2022-132E
CENTER_NAME    = EARTH
REF_FRAME      = TEME
TIME_SYSTEM    = UTC
MEAN_ELEMENT_THEORY = SGP/SGP4

EPOCH          = 2026-02-18T00:15:44.375328
MEAN_MOTION    = 15.60085850
ECCENTRICITY   = .0019694
INCLINATION    = 97.2955
RA_OF_ASC_NODE = 51.7595
ARG_OF_PERICENTER = 155.7795
MEAN_ANOMALY   = 204.4393

EPHEMERIS_TYPE = 0
CLASSIFICATION_TYPE = U
NORAD_CAT_ID   = 54039
ELEMENT_SET_NO = 999
REV_AT_EPOCH   = 18730
BSTAR          = .45712E-3
MEAN_MOTION_DOT = .37384E-3
MEAN_MOTION_DDOT = 0

CCSDS_OMM_VERS = 2.0
CREATION_DATE  = 
ORIGINATOR     = 

OBJECT_NAME    = GSLV R/B
OBJECT_ID      = 2022-138AN
CENTER_NAME    = EARTH
REF_FRAME      = TEME
TIME_SYSTEM    = UTC
MEAN_ELEMENT_THEORY = SGP/SGP4

EPOCH          = 2026-02-17T17:31:01.218144
MEAN_MOTION    = 14.96615874
ECCENTRICITY   = .0020066
INCLINATION    = 87.3873
RA_OF_ASC_NODE = 173.0404
ARG_OF_PERICENTER = 219.4341
MEAN_ANOMALY   = 140.5431

EPHEMERIS_TYPE = 0
CLASSIFICATION_TYPE = U
NORAD_CAT_ID   = 54149
ELEMENT_SET_NO = 999
REV_AT_EPOCH   = 18094
BSTAR          = .27325E-3
MEAN_MOTION_DOT = .3152E-4
MEAN_MOTION_DDOT = 0

CCSDS_OMM_VERS = 2.0
CREATION_DATE  = 
ORIGINATOR     = 

OBJECT_NAME    = XRISM
OBJECT_ID      = 2023-137A
CENTER_NAME    = EARTH
REF_FRAME      = TEME
TIME_SYSTEM    = UTC
MEAN_ELEMENT_THEORY = SGP/SGP4

EPOCH          = 2026-02-18T03:47:27.060576
MEAN_MOTION    = 15.11248312
ECCENTRICITY   = .0008256
INCLINATION    = 31.0028
RA_OF_ASC_NODE = 49.9666
ARG_OF_PERICENTER = 204.8830
MEAN_ANOMALY   = 155.1411

EPHEMERIS_TYPE = 0
CLASSIFICATION_TYPE = U
NORAD_CAT_ID   = 57800
ELEMENT_SET_NO = 999
REV_AT_EPOCH   = 13483
BSTAR          = .28385E-3
MEAN_MOTION_DOT = .4992E-4
MEAN_MOTION_DDOT = 0

CCSDS_OMM_VERS = 2.0
CREATION_DATE  = 
ORIGINATOR     = 

OBJECT_NAME    = ACS3
OBJECT_ID      = 2024-077B
CENTER_NAME    = EARTH
REF_FRAME      = TEME
TIME_SYSTEM    = UTC
MEAN_ELEMENT_THEORY = SGP/SGP4

EPOCH          = 2026-02-17T20:01:14.917152
MEAN_MOTION    = 13.88745291
ECCENTRICITY   = .00482217
INCLINATION    = 97.2179
RA_OF_ASC_NODE = 354.4099
ARG_OF_PERICENTER = 134.7289
MEAN_ANOMALY   = 225.7815

EPHEMERIS_TYPE = 0
CLASSIFICATION_TYPE = U
NORAD_CAT_ID   = 59588
ELEMENT_SET_NO = 999
REV_AT_EPOCH   = 9144
BSTAR          = .14852179E-1
MEAN_MOTION_DOT = .18092E-3
MEAN_MOTION_DDOT = 0

CCSDS_OMM_VERS = 2.0
CREATION_DATE  = 
ORIGINATOR     = 

OBJECT_NAME    = SZ-21 MODULE
OBJECT_ID      = 2025-246C
CENTER_NAME    = EARTH
REF_FRAME      = TEME
TIME_SYSTEM    = UTC
MEAN_ELEMENT_THEORY = SGP/SGP4

EPOCH          = 2026-02-18T03:13:55.040448
MEAN_MOTION    = 15.67019082
ECCENTRICITY   = .0001868
INCLINATION    = 41.4764
RA_OF_ASC_NODE = 323.5946
ARG_OF_PERICENTER = 299.0458
MEAN_ANOMALY   = 61.0196

EPHEMERIS_TYPE = 0
CLASSIFICATION_TYPE = U
NORAD_CAT_ID   = 66515
ELEMENT_SET_NO = 999
REV_AT_EPOCH   = 1500
BSTAR          = .29213E-3
MEAN_MOTION_DOT = .31807E-3
MEAN_MOTION_DDOT = 0

